[{"OBJECT_NAME":"STARLINK-5021","OBJECT_ID":"2022-119S","EPOCH":"2026-03-09T20:23:13.321536","MEAN_MOTION":15.08824096,"ECCENTRICITY":0.00016356,"INCLINATION":53.2152,"RA_OF_ASC_NODE":273.1611,"ARG_OF_PERICENTER":78.2188,"MEAN_ANOMALY":281.8987,"EPHEMERIS_TYPE":0,"CLASSIFICATION_TYPE":"U","NORAD_CAT_ID":53902,"ELEMENT_SET_NO":999,"REV_AT_EPOCH":19241,"BSTAR":0.0003580786,"MEAN_MOTION_DOT":5.413e-5,"MEAN_MOTION_DDOT":0},{"OBJECT_NAME":"CZ-6A DEB","OBJECT_ID":"2024-126C","EPOCH":"2026-03-09T22:45:09.534528","MEAN_MOTION":15.08339588,"ECCENTRICITY":0.00034995,"INCLINATION":97.8272,"RA_OF_ASC_NODE":88.0703,"ARG_OF_PERICENTER":249.9832,"MEAN_ANOMALY":110.1019,"EPHEMERIS_TYPE":0,"CLASSIFICATION_TYPE":"U","NORAD_CAT_ID":60213,"ELEMENT_SET_NO":999,"REV_AT_EPOCH":9177,"BSTAR":0.0010886629,"MEAN_MOTION_DOT":0.00016868,"MEAN_MOTION_DDOT":0}]
